NORAD_CAT_ID,OBJECT_NAME,OBJECT_TYPE,EPOCH,MEAN_MOTION,ECCENTRICITY,INCLINATION,RA_OF_ASC_NODE,ARG_OF_PERICENTER,MEAN_ANOMALY,BSTAR,MEAN_MOTION_DOT,MEAN_MOTION_DDOT,TLE_LINE0,TLE_LINE1,TLE_LINE2,SEMIMAJOR_AXIS,PERIOD,APOGEE,PERIGEE,DECAYED
49742.0,STARLINK-3202,PAYLOAD,2022-04-27 22:00:00,15.08849382,0.0002203,53.217,6.8317,39.2096,289.0162,-0.00047545,-7.849e-05,0.0,0 STARLINK-3202,1 49742U 21115U   22117.91667824 -.00007849  00000-0 -47545-3 0  9990,2 49742  53.2170   6.8317 0002203  39.2096 289.0162 15.08849382 23514,6917.852,95.437,541.241,538.193,0.0
49742.0,STARLINK-3202,PAYLOAD,2022-04-28 14:00:01,15.08843813,0.0002009,53.2165,3.8375,41.3385,310.123,0.0014278,0.00022511,0.0,0 STARLINK-3202,1 49742U 21115U   22118.58334491  .00022511  00000-0  14278-2 0  9992,2 49742  53.2165   3.8375 0002009  41.3385 310.1230 15.08843813 23614,6917.869000000002,95.437,541.124,538.344,0.0
49742.0,STARLINK-3202,PAYLOAD,2022-04-29 06:00:00,15.08868275,0.0002126,53.2159,0.8462,35.1081,339.5724,-0.0050369,-0.0007962999999999,0.0,0 STARLINK-3202,1 49742U 21115U   22119.25001157 -.00079630  00000-0 -50369-2 0  9994,2 49742  53.2159   0.8462 0002126  35.1081 339.5724 15.08868275 23718,6917.794,95.436,541.13,538.188,0.0
49742.0,STARLINK-3202,PAYLOAD,2022-04-29 14:00:01,15.08790532,0.0001884,53.2159,359.3484,37.7859,348.4945,0.0043003999999999,0.00068728,0.0,0 STARLINK-3202,1 49742U 21115U   22119.58334491  .00068728  00000-0  43004-2 0  9992,2 49742  53.2159 359.3484 0001884  37.7859 348.4945 15.08790532  3616,6918.031999999997,95.441,541.2,538.5930000000002,0.0
49742.0,STARLINK-3202,PAYLOAD,2022-04-29 22:00:00,15.08845786,0.0002063,53.2159,357.8539,34.593,3.2461,-0.0033962,-0.00053944,0.0,0 STARLINK-3202,1 49742U 21115U   22119.91667824 -.00053944  00000-0 -33962-2 0  9996,2 49742  53.2159 357.8539 0002063  34.5930   3.2461 15.08845786 23810,6917.863,95.437,541.155,538.3009999999998,0.0
49742.0,STARLINK-3202,PAYLOAD,2022-04-30 14:00:01,15.08794006,0.0001972,53.2156,354.8593,38.6461,22.3501,0.0028259,0.00044917,0.0,0 STARLINK-3202,1 49742U 21115U   22120.58334491  .00044917  00000-0  28259-2 0  9993,2 49742  53.2156 354.8593 0001972  38.6461  22.3501 15.08794006  3572,6918.021,95.44,541.25,538.5219999999998,0.0
49742.0,STARLINK-3202,PAYLOAD,2022-04-30 22:00:00,15.08821374,0.0002203,53.2155,353.3647,36.8316,35.7222,-0.00015062,-2.683e-05,0.0,0 STARLINK-3202,1 49742U 21115U   22120.91667824 -.00002683  00000-0 -15062-3 0  9994,2 49742  53.2155 353.3647 0002203  36.8316  35.7222 15.08821374  3579,6917.937,95.439,541.326,538.278,0.0
49742.0,STARLINK-3202,PAYLOAD,2022-05-01 06:00:00,15.08851303,0.0002186,53.2154,351.8678,33.9631,50.1584,-0.0034794,-0.00055257,0.0,0 STARLINK-3202,1 49742U 21115U   22121.25001157 -.00055257  00000-0 -34794-2 0  9990,2 49742  53.2154 351.8678 0002186  33.9631  50.1584 15.08851303 24012,6917.846,95.437,541.2230000000002,538.1990000000002,0.0
49742.0,STARLINK-3202,PAYLOAD,2022-05-01 14:00:01,15.08802355,0.0002011,53.2156,350.37,37.9411,57.7687,0.0031649,0.0005038999999999,0.0,0 STARLINK-3202,1 49742U 21115U   22121.58334491  .00050390  00000-0  31649-2 0  9993,2 49742  53.2156 350.3700 0002011  37.9411  57.7687 15.08802355  3580,6917.995,95.44,541.252,538.469,0.0
49742.0,STARLINK-3202,PAYLOAD,2022-05-01 22:00:01,15.0882907,0.0002252,53.2155,348.8753,35.9778,71.3631,-8.568100000000001e-05,-1.651e-05,0.0,0 STARLINK-3202,1 49742U 21115U   22121.91668981 -.00001651  00000-0 -85681-4 0  9999,2 49742  53.2155 348.8753 0002252  35.9778  71.3631 15.08829070 24116,6917.9140000000025,95.438,541.337,538.221,0.0
49742.0,STARLINK-3202,PAYLOAD,2022-05-02 14:00:01,15.08810569,0.0002191,53.2159,345.8806,42.2114,88.2405,0.0025205,0.00040022,0.0,0 STARLINK-3202,1 49742U 21115U   22122.58334491  .00040022  00000-0  25205-2 0  9996,2 49742  53.2159 345.8806 0002191  42.2114  88.2405 15.08810569  3603,6917.97,95.439,541.351,538.32,0.0
49742.0,STARLINK-3202,PAYLOAD,2022-05-02 22:00:01,15.08829137,0.0002397,53.216,344.386,39.3367,102.7535,0.00022116,3.232e-05,0.0,0 STARLINK-3202,1 49742U 21115U   22122.91668981  .00003232  00000-0  22116-3 0  9998,2 49742  53.2160 344.3860 0002397  39.3367 102.7535 15.08829137  3612,6917.9140000000025,95.438,541.437,538.12,0.0
49742.0,STARLINK-3202,PAYLOAD,2022-05-03 04:00:00,15.08839987,0.000241,53.2157,343.2635,37.5192,23.1924,0.00046568,7.131e-05,0.0,0 STARLINK-3202,1 49742U 21115U   22123.16667824  .00007131  00000-0  46568-3 0  9990,2 49742  53.2157 343.2635 0002410  37.5192  23.1924 15.08839987 24309,6917.88,95.438,541.413,538.078,0.0
49742.0,STARLINK-3202,PAYLOAD,2022-05-03 14:00:01,15.08844125,0.000223,53.2163,341.3913,43.6826,121.5269,0.0016284,0.00025726,0.0,0 STARLINK-3202,1 49742U 21115U   22123.58334491  .00025726  00000-0  16284-2 0  9998,2 49742  53.2163 341.3913 0002230  43.6826 121.5269 15.08844125  3566,6917.868,95.437,541.275,538.19,0.0
49742.0,STARLINK-3202,PAYLOAD,2022-05-03 22:00:00,15.08851675,0.0002391,53.2161,339.8966,38.8892,137.938,-0.0014059,-0.00022602,0.0,0 STARLINK-3202,1 49742U 21115U   22123.91667824 -.00022602  00000-0 -14059-2 0  9994,2 49742  53.2161 339.8966 0002391  38.8892 137.9380 15.08851675  3564,6917.845,95.437,541.364,538.056,0.0
49742.0,STARLINK-3202,PAYLOAD,2022-05-04 06:00:02,15.08859605,0.0002284,53.2161,338.3991,38.3929,150.0938,-0.0013708,-0.00022051,0.0,0 STARLINK-3202,1 49742U 21115U   22124.25002315 -.00022051  00000-0 -13708-2 0  9998,2 49742  53.2161 338.3991 0002284  38.3929 150.0938 15.08859605 24461,6917.82,95.436,541.265,538.105,0.0
49742.0,STARLINK-3202,PAYLOAD,2022-05-04 14:00:01,15.08862021,0.0002134,53.2164,336.9019,42.5098,157.5192,-0.00035773,-5.981e-05,0.0,0 STARLINK-3202,1 49742U 21115U   22124.58334491 -.00005981  00000-0 -35773-3 0  9997,2 49742  53.2164 336.9019 0002134  42.5098 157.5192 15.08862021  3600,6917.813,95.436,541.154,538.202,0.0
49742.0,STARLINK-3202,PAYLOAD,2022-05-04 22:00:01,15.08830088,0.0002298,53.2163,335.4072,36.9987,174.7176,0.0010185,0.00015954,0.0,0 STARLINK-3202,1 49742U 21115U   22124.91668981  .00015954  00000-0  10185-2 0  9996,2 49742  53.2163 335.4072 0002298  36.9987 174.7176 15.08830088  3608,6917.911,95.438,541.365,538.186,0.0
49742.0,STARLINK-3202,PAYLOAD,2022-05-05 06:00:00,15.08871164,0.0002148,53.216,333.9097,36.512,186.7263,-0.0043406999999999,-0.00068772,0.0,0 STARLINK-3202,1 49742U 21115U   22125.25001157 -.00068772  00000-0 -43407-2 0  9991,2 49742  53.2160 333.9097 0002148  36.5120 186.7263 15.08871164 24618,6917.785,95.436,541.136,538.164,0.0
49742.0,STARLINK-3202,PAYLOAD,2022-05-05 14:00:01,15.08827878,0.0002011,53.2163,332.4127,39.9797,194.8615,0.0013334,0.0002099,0.0,0 STARLINK-3202,1 49742U 21115U   22125.58334491  .00020990  00000-0  13334-2 0  9991,2 49742  53.2163 332.4127 0002011  39.9797 194.8615 15.08827878  3560,6917.917,95.438,541.174,538.391,0.0
49742.0,STARLINK-3202,PAYLOAD,2022-05-05 22:00:00,15.08826207,0.0002235,53.216,330.918,35.8094,210.6246,0.0013231,0.00020824,0.0,0 STARLINK-3202,1 49742U 21115U   22125.91667824  .00020824  00000-0  13231-2 0  9999,2 49742  53.2160 330.9180 0002235  35.8094 210.6246 15.08826207 24725,6917.9230000000025,95.438,541.3340000000002,538.241,0.0
49742.0,STARLINK-3202,PAYLOAD,2022-05-06 14:00:01,15.08865986,0.0001985,53.2159,327.9236,40.866,228.7511,-0.0023705,-0.00037844,0.0,0 STARLINK-3202,1 49742U 21115U   22126.58334491 -.00037844  00000-0 -23705-2 0  9993,2 49742  53.2159 327.9236 0001985  40.8660 228.7511 15.08865986  3603,6917.801,95.436,541.039,538.293,0.0
49742.0,STARLINK-3202,PAYLOAD,2022-05-06 22:00:00,15.08817499,0.0002198,53.2157,326.4289,35.4144,245.8194,0.0018156,0.00028708,0.0,0 STARLINK-3202,1 49742U 21115U   22126.91667824  .00028708  00000-0  18156-2 0  9990,2 49742  53.2157 326.4289 0002198  35.4144 245.8194 15.08817499 24872,6917.949000000001,95.439,541.335,538.294,0.0
49742.0,STARLINK-3202,PAYLOAD,2022-05-07 14:00:01,15.08843269,0.0001971,53.2155,323.4344,38.8497,265.5575,-0.0013199,-0.00021235,0.0,0 STARLINK-3202,1 49742U 21115U   22127.58334491 -.00021235  00000-0 -13199-2 0  9997,2 49742  53.2155 323.4344 0001971  38.8497 265.5575 15.08843269 24972,6917.87,95.437,541.099,538.372,0.0
49742.0,STARLINK-3202,PAYLOAD,2022-05-07 22:00:00,15.08809804,0.0002194,53.2155,321.9399,34.2081,281.7931,0.0021936,0.00034767,0.0,0 STARLINK-3202,1 49742U 21115U   22127.91667824  .00034767  00000-0  21936-2 0  9993,2 49742  53.2155 321.9399 0002194  34.2081 281.7931 15.08809804  3590,6917.973000000001,95.439,541.355,538.32,0.0
49742.0,STARLINK-3202,PAYLOAD,2022-05-08 14:00:01,15.08850172,0.0002035,53.2155,318.9454,38.528,300.6324,-6.2095e-05,-1.277e-05,0.0,0 STARLINK-3202,1 49742U 21115U   22128.58334491 -.00001277  00000-0 -62095-4 0  9993,2 49742  53.2155 318.9454 0002035  38.5280 300.6324 15.08850172 25124,6917.849,95.437,541.122,538.307,0.0
49742.0,STARLINK-3202,PAYLOAD,2022-05-08 22:00:00,15.08832949,0.0002239,53.2155,317.4508,33.6853,317.089,3.8865e-05,3.3e-06,0.0,0 STARLINK-3202,1 49742U 21115U   22128.91667824  .00000330  00000-0  38865-4 0  9994,2 49742  53.2155 317.4508 0002239  33.6853 317.0890 15.08832949  3595,6917.901999999999,95.438,541.316,538.2180000000002,0.0
49742.0,STARLINK-3202,PAYLOAD,2022-05-09 14:00:01,15.0885179,0.0002073,53.2156,314.4562,36.5454,337.4624,-0.00014662,-2.622e-05,0.0,0 STARLINK-3202,1 49742U 21115U   22129.58335648 -.00002622  00000-0 -14662-3 0  9990,2 49742  53.2156 314.4562 0002073  36.5454 337.4624 15.08851790 25273,6917.844,95.437,541.143,538.275,0.0
49742.0,STARLINK-3202,PAYLOAD,2022-05-09 22:00:00,15.08838158,0.0002274,53.2156,312.9615,32.219,353.3384,-9.8691e-05,-1.859e-05,0.0,0 STARLINK-3202,1 49742U 21115U   22129.91667824 -.00001859  00000-0 -98691-4 0  9997,2 49742  53.2156 312.9615 0002274  32.2190 353.3384 15.08838158  3570,6917.886,95.438,541.3240000000002,538.178,0.0
